[{"OBJECT_NAME":"GEESAT-3 08","OBJECT_ID":"2024-159H","EPOCH":"2026-03-09T22:22:53.260032","MEAN_MOTION":14.83813348,"ECCENTRICITY":0.00278455,"INCLINATION":50.0035,"RA_OF_ASC_NODE":183.2774,"ARG_OF_PERICENTER":72.9833,"MEAN_ANOMALY":287.4154,"EPHEMERIS_TYPE":0,"CLASSIFICATION_TYPE":"U","NORAD_CAT_ID":61018,"ELEMENT_SET_NO":999,"REV_AT_EPOCH":8203,"BSTAR":0.00040891226,"MEAN_MOTION_DOT":3.215e-5,"MEAN_MOTION_DDOT":0},{"OBJECT_NAME":"OKEAN-O","OBJECT_ID":"1999-039A","EPOCH":"2026-03-09T17:16:10.736544","MEAN_MOTION":14.80335142,"ECCENTRICITY":0.00012718,"INCLINATION":97.9442,"RA_OF_ASC_NODE":128.6108,"ARG_OF_PERICENTER":70.3084,"MEAN_ANOMALY":289.8265,"EPHEMERIS_TYPE":0,"CLASSIFICATION_TYPE":"U","NORAD_CAT_ID":25860,"ELEMENT_SET_NO":999,"REV_AT_EPOCH":43439,"BSTAR":0.0001136203,"MEAN_MOTION_DOT":8.14e-6,"MEAN_MOTION_DDOT":0}]
